ZORKIY-2M-VPE           
1 67252U 25313E   26019.24804356  .00008690  00000+0  38610-3 0  9999
2 67252  97.4107  96.3828 0011423 143.0704 217.1321 15.21710625  3301
AIST-2T 1               
1 67253U 25313F   26019.23178927  .00057339  00000+0  56927-3 0  9992
2 67253  97.1024  96.5962 0010664 160.0871 200.0808 15.65529925  3375
AIST-2T 2               
1 67254U 25313G   26019.23365615  .00050815  00000+0  51363-3 0  9996
2 67254  97.1023  96.5937 0010220 162.2757 197.8862 15.65109485  3369
2025-313H               
1 67255U 25313H   26019.25941256  .00002809  00000+0  19905-3 0  9996
2 67255  97.3087  95.5000 0091522 121.7345 239.2841 15.02188434  3268
SITRO-AIS-57            
1 67256U 25313J   26019.07582104  .00010810  00000+0  50349-3 0  9998
2 67256  97.4102  96.1502 0017252 161.4467 198.7400 15.19950594  3279
SITRO-AIS-59            
1 67257U 25313K   26019.27283930  .00011178  00000+0  52012-3 0  9993
2 67257  97.4108  96.3465 0017006 162.7151 197.4667 15.19980643  3300
SITRO-AIS-58            
1 67258U 25313L   26019.27237081  .00011219  00000+0  52136-3 0  9993
2 67258  97.4103  96.3453 0016944 162.0173 198.1665 15.20022714  3304
2025-313M               
1 67259U 25313M   26019.13722771  .00013551  00000+0  62354-3 0  9998
2 67259  97.4146  96.2441 0016130 161.0820 199.1018 15.20329350  3289
SITRO-AIS-60            
1 67260U 25313N   26019.27068589  .00008301  00000+0  38604-3 0  9993
2 67260  97.4111  96.3502 0016356 162.2735 197.9074 15.20093478  3300
2025-313P               
1 67261U 25313P   26019.26699883  .00018926  00000+0  86332-3 0  9995
2 67261  97.4146  96.3764 0015888 160.9531 199.2302 15.20559362  3305
2025-313Q               
1 67262U 25313Q   26019.20299181  .00012502  00000+0  57609-3 0  9996
2 67262  97.4113  96.2885 0015998 162.9908 197.1867 15.20303137  3293
DCS-1                   
1 67263U 25313R   26019.26923146  .00010973  00000+0  50699-3 0  9990
2 67263  97.4126  96.3678 0015977 161.7413 198.4399 15.20242757  3300
