CCSDS_OMM_VERS = 2.0
CREATION_DATE  = 
ORIGINATOR     = 

OBJECT_NAME    = ZORKIY-2M-VPE
OBJECT_ID      = 2025-313E
CENTER_NAME    = EARTH
REF_FRAME      = TEME
TIME_SYSTEM    = UTC
MEAN_ELEMENT_THEORY = SGP/SGP4

EPOCH          = 2026-01-19T05:57:10.963584
MEAN_MOTION    = 15.21710625
ECCENTRICITY   = .00114231
INCLINATION    = 97.4107
RA_OF_ASC_NODE = 96.3828
ARG_OF_PERICENTER = 143.0704
MEAN_ANOMALY   = 217.1321

EPHEMERIS_TYPE = 0
CLASSIFICATION_TYPE = U
NORAD_CAT_ID   = 67252
ELEMENT_SET_NO = 999
REV_AT_EPOCH   = 330
BSTAR          = .38609887E-3
MEAN_MOTION_DOT = .869E-4
MEAN_MOTION_DDOT = 0

CCSDS_OMM_VERS = 2.0
CREATION_DATE  = 
ORIGINATOR     = 

OBJECT_NAME    = AIST-2T 1
OBJECT_ID      = 2025-313F
CENTER_NAME    = EARTH
REF_FRAME      = TEME
TIME_SYSTEM    = UTC
MEAN_ELEMENT_THEORY = SGP/SGP4

EPOCH          = 2026-01-19T05:33:46.592928
MEAN_MOTION    = 15.65529925
ECCENTRICITY   = .00106645
INCLINATION    = 97.1024
RA_OF_ASC_NODE = 96.5962
ARG_OF_PERICENTER = 160.0871
MEAN_ANOMALY   = 200.0808

EPHEMERIS_TYPE = 0
CLASSIFICATION_TYPE = U
NORAD_CAT_ID   = 67253
ELEMENT_SET_NO = 999
REV_AT_EPOCH   = 337
BSTAR          = .56926573E-3
MEAN_MOTION_DOT = .57339E-3
MEAN_MOTION_DDOT = 0

CCSDS_OMM_VERS = 2.0
CREATION_DATE  = 
ORIGINATOR     = 

OBJECT_NAME    = AIST-2T 2
OBJECT_ID      = 2025-313G
CENTER_NAME    = EARTH
REF_FRAME      = TEME
TIME_SYSTEM    = UTC
MEAN_ELEMENT_THEORY = SGP/SGP4

EPOCH          = 2026-01-19T05:36:27.891360
MEAN_MOTION    = 15.65109485
ECCENTRICITY   = .00102202
INCLINATION    = 97.1023
RA_OF_ASC_NODE = 96.5937
ARG_OF_PERICENTER = 162.2757
MEAN_ANOMALY   = 197.8862

EPHEMERIS_TYPE = 0
CLASSIFICATION_TYPE = U
NORAD_CAT_ID   = 67254
ELEMENT_SET_NO = 999
REV_AT_EPOCH   = 336
BSTAR          = .51362663E-3
MEAN_MOTION_DOT = .50815E-3
MEAN_MOTION_DDOT = 0

CCSDS_OMM_VERS = 2.0
CREATION_DATE  = 
ORIGINATOR     = 

OBJECT_NAME    = 2025-313H
OBJECT_ID      = 2025-313H
CENTER_NAME    = EARTH
REF_FRAME      = TEME
TIME_SYSTEM    = UTC
MEAN_ELEMENT_THEORY = SGP/SGP4

EPOCH          = 2026-01-19T06:13:33.245184
MEAN_MOTION    = 15.02188434
ECCENTRICITY   = .00915221
INCLINATION    = 97.3087
RA_OF_ASC_NODE = 95.5000
ARG_OF_PERICENTER = 121.7345
MEAN_ANOMALY   = 239.2841

EPHEMERIS_TYPE = 0
CLASSIFICATION_TYPE = U
NORAD_CAT_ID   = 67255
ELEMENT_SET_NO = 999
REV_AT_EPOCH   = 326
BSTAR          = .19905005E-3
MEAN_MOTION_DOT = .2809E-4
MEAN_MOTION_DDOT = 0

CCSDS_OMM_VERS = 2.0
CREATION_DATE  = 
ORIGINATOR     = 

OBJECT_NAME    = SITRO-AIS-57
OBJECT_ID      = 2025-313J
CENTER_NAME    = EARTH
REF_FRAME      = TEME
TIME_SYSTEM    = UTC
MEAN_ELEMENT_THEORY = SGP/SGP4

EPOCH          = 2026-01-19T01:49:10.937856
MEAN_MOTION    = 15.19950594
ECCENTRICITY   = .00172524
INCLINATION    = 97.4102
RA_OF_ASC_NODE = 96.1502
ARG_OF_PERICENTER = 161.4467
MEAN_ANOMALY   = 198.7400

EPHEMERIS_TYPE = 0
CLASSIFICATION_TYPE = U
NORAD_CAT_ID   = 67256
ELEMENT_SET_NO = 999
REV_AT_EPOCH   = 327
BSTAR          = .50349417E-3
MEAN_MOTION_DOT = .1081E-3
MEAN_MOTION_DDOT = 0

CCSDS_OMM_VERS = 2.0
CREATION_DATE  = 
ORIGINATOR     = 

OBJECT_NAME    = SITRO-AIS-59
OBJECT_ID      = 2025-313K
CENTER_NAME    = EARTH
REF_FRAME      = TEME
TIME_SYSTEM    = UTC
MEAN_ELEMENT_THEORY = SGP/SGP4

EPOCH          = 2026-01-19T06:32:53.315520
MEAN_MOTION    = 15.19980643
ECCENTRICITY   = .00170068
INCLINATION    = 97.4108
RA_OF_ASC_NODE = 96.3465
ARG_OF_PERICENTER = 162.7151
MEAN_ANOMALY   = 197.4667

EPHEMERIS_TYPE = 0
CLASSIFICATION_TYPE = U
NORAD_CAT_ID   = 67257
ELEMENT_SET_NO = 999
REV_AT_EPOCH   = 330
BSTAR          = .52011894E-3
MEAN_MOTION_DOT = .11178E-3
MEAN_MOTION_DDOT = 0

CCSDS_OMM_VERS = 2.0
CREATION_DATE  = 
ORIGINATOR     = 

OBJECT_NAME    = SITRO-AIS-58
OBJECT_ID      = 2025-313L
CENTER_NAME    = EARTH
REF_FRAME      = TEME
TIME_SYSTEM    = UTC
MEAN_ELEMENT_THEORY = SGP/SGP4

EPOCH          = 2026-01-19T06:32:12.837984
MEAN_MOTION    = 15.20022714
ECCENTRICITY   = .00169445
INCLINATION    = 97.4103
RA_OF_ASC_NODE = 96.3453
ARG_OF_PERICENTER = 162.0173
MEAN_ANOMALY   = 198.1665

EPHEMERIS_TYPE = 0
CLASSIFICATION_TYPE = U
NORAD_CAT_ID   = 67258
ELEMENT_SET_NO = 999
REV_AT_EPOCH   = 330
BSTAR          = .52136079E-3
MEAN_MOTION_DOT = .11219E-3
MEAN_MOTION_DDOT = 0

CCSDS_OMM_VERS = 2.0
CREATION_DATE  = 
ORIGINATOR     = 

OBJECT_NAME    = 2025-313M
OBJECT_ID      = 2025-313M
CENTER_NAME    = EARTH
REF_FRAME      = TEME
TIME_SYSTEM    = UTC
MEAN_ELEMENT_THEORY = SGP/SGP4

EPOCH          = 2026-01-19T03:17:36.474144
MEAN_MOTION    = 15.20329350
ECCENTRICITY   = .00161307
INCLINATION    = 97.4146
RA_OF_ASC_NODE = 96.2441
ARG_OF_PERICENTER = 161.0820
MEAN_ANOMALY   = 199.1018

EPHEMERIS_TYPE = 0
CLASSIFICATION_TYPE = U
NORAD_CAT_ID   = 67259
ELEMENT_SET_NO = 999
REV_AT_EPOCH   = 328
BSTAR          = .62353997E-3
MEAN_MOTION_DOT = .13551E-3
MEAN_MOTION_DDOT = 0

CCSDS_OMM_VERS = 2.0
CREATION_DATE  = 
ORIGINATOR     = 

OBJECT_NAME    = SITRO-AIS-60
OBJECT_ID      = 2025-313N
CENTER_NAME    = EARTH
REF_FRAME      = TEME
TIME_SYSTEM    = UTC
MEAN_ELEMENT_THEORY = SGP/SGP4

EPOCH          = 2026-01-19T06:29:47.260896
MEAN_MOTION    = 15.20093478
ECCENTRICITY   = .00163561
INCLINATION    = 97.4111
RA_OF_ASC_NODE = 96.3502
ARG_OF_PERICENTER = 162.2735
MEAN_ANOMALY   = 197.9074

EPHEMERIS_TYPE = 0
CLASSIFICATION_TYPE = U
NORAD_CAT_ID   = 67260
ELEMENT_SET_NO = 999
REV_AT_EPOCH   = 330
BSTAR          = .3860409E-3
MEAN_MOTION_DOT = .8301E-4
MEAN_MOTION_DDOT = 0

CCSDS_OMM_VERS = 2.0
CREATION_DATE  = 
ORIGINATOR     = 

OBJECT_NAME    = 2025-313P
OBJECT_ID      = 2025-313P
CENTER_NAME    = EARTH
REF_FRAME      = TEME
TIME_SYSTEM    = UTC
MEAN_ELEMENT_THEORY = SGP/SGP4

EPOCH          = 2026-01-19T06:24:28.698912
MEAN_MOTION    = 15.20559362
ECCENTRICITY   = .00158883
INCLINATION    = 97.4146
RA_OF_ASC_NODE = 96.3764
ARG_OF_PERICENTER = 160.9531
MEAN_ANOMALY   = 199.2302

EPHEMERIS_TYPE = 0
CLASSIFICATION_TYPE = U
NORAD_CAT_ID   = 67261
ELEMENT_SET_NO = 999
REV_AT_EPOCH   = 330
BSTAR          = .86332145E-3
MEAN_MOTION_DOT = .18926E-3
MEAN_MOTION_DDOT = 0

CCSDS_OMM_VERS = 2.0
CREATION_DATE  = 
ORIGINATOR     = 

OBJECT_NAME    = 2025-313Q
OBJECT_ID      = 2025-313Q
CENTER_NAME    = EARTH
REF_FRAME      = TEME
TIME_SYSTEM    = UTC
MEAN_ELEMENT_THEORY = SGP/SGP4

EPOCH          = 2026-01-19T04:52:18.492384
MEAN_MOTION    = 15.20303137
ECCENTRICITY   = .00159983
INCLINATION    = 97.4113
RA_OF_ASC_NODE = 96.2885
ARG_OF_PERICENTER = 162.9908
MEAN_ANOMALY   = 197.1867

EPHEMERIS_TYPE = 0
CLASSIFICATION_TYPE = U
NORAD_CAT_ID   = 67262
ELEMENT_SET_NO = 999
REV_AT_EPOCH   = 329
BSTAR          = .57608652E-3
MEAN_MOTION_DOT = .12502E-3
MEAN_MOTION_DDOT = 0

CCSDS_OMM_VERS = 2.0
CREATION_DATE  = 
ORIGINATOR     = 

OBJECT_NAME    = DCS-1
OBJECT_ID      = 2025-313R
CENTER_NAME    = EARTH
REF_FRAME      = TEME
TIME_SYSTEM    = UTC
MEAN_ELEMENT_THEORY = SGP/SGP4

EPOCH          = 2026-01-19T06:27:41.598144
MEAN_MOTION    = 15.20242757
ECCENTRICITY   = .00159776
INCLINATION    = 97.4126
RA_OF_ASC_NODE = 96.3678
ARG_OF_PERICENTER = 161.7413
MEAN_ANOMALY   = 198.4399

EPHEMERIS_TYPE = 0
CLASSIFICATION_TYPE = U
NORAD_CAT_ID   = 67263
ELEMENT_SET_NO = 999
REV_AT_EPOCH   = 330
BSTAR          = .50699264E-3
MEAN_MOTION_DOT = .10973E-3
MEAN_MOTION_DDOT = 0

